<?xml version="1.0" encoding="UTF-8"?>
<kml xmlns="http://www.opengis.net/kml/2.2">
  <Document>
    <name>Metropolitan Urban Zoning &amp; Transit Grid</name>
    <Placemark>
      <name>Central Business District Commercial Zone</name>
      <description>Zoning: Commercial Tier 1 | Floor Area Ratio: 3.5</description>
      <Polygon>
        <outerBoundaryIs><LinearRing><coordinates>
          77.5900,12.9700,0 77.6050,12.9700,0 77.6050,12.9820,0 77.5900,12.9820,0 77.5900,12.9700,0
        </coordinates></LinearRing></outerBoundaryIs>
      </Polygon>
    </Placemark>
    <Placemark>
      <name>Botanical Eco Reserve &amp; Green Belt</name>
      <description>Zoning: Environmental Conservation | Canopy Cover: 85%</description>
      <Polygon>
        <outerBoundaryIs><LinearRing><coordinates>
          77.5750,12.9550,0 77.5880,12.9520,0 77.5850,12.9640,0 77.5720,12.9620,0 77.5750,12.9550,0
        </coordinates></LinearRing></outerBoundaryIs>
      </Polygon>
    </Placemark>
    <Placemark>
      <name>Innovation Corridor Arterial Expressway</name>
      <description>Class: 6-Lane Expressway | Speed Limit: 80 km/h</description>
      <LineString>
        <coordinates>
          77.5650,12.9450,0 77.5800,12.9600,0 77.6000,12.9750,0 77.6200,12.9900,0
        </coordinates>
      </LineString>
    </Placemark>
    <Placemark>
      <name>Riverside Green Promenade Trail</name>
      <description>Class: Non-motorised transport trail | Width: 6m</description>
      <LineString>
        <coordinates>
          77.5700,12.9800,0 77.5850,12.9850,0 77.5950,12.9920,0
        </coordinates>
      </LineString>
    </Placemark>
    <Placemark>
      <name>Central Metro Transit Hub</name>
      <description>Passenger Throughput: 45,000/day | Interchange: Blue &amp; Purple</description>
      <Point><coordinates>77.5946,12.9716,0</coordinates></Point>
    </Placemark>
  </Document>
</kml>